[{"OBJECT_NAME":"KOSEN-1","OBJECT_ID":"2021-102H","EPOCH":"2026-03-09T22:29:54.100608","MEAN_MOTION":15.25323573,"ECCENTRICITY":0.00138659,"INCLINATION":97.3334,"RA_OF_ASC_NODE":113.0569,"ARG_OF_PERICENTER":191.9191,"MEAN_ANOMALY":168.1721,"EPHEMERIS_TYPE":0,"CLASSIFICATION_TYPE":"U","NORAD_CAT_ID":49402,"ELEMENT_SET_NO":999,"REV_AT_EPOCH":23888,"BSTAR":0.00040411561,"MEAN_MOTION_DOT":0.00010142,"MEAN_MOTION_DDOT":0},{"OBJECT_NAME":"STARLINK-35961","OBJECT_ID":"2025-265Q","EPOCH":"2026-03-08T23:34:58.990080","MEAN_MOTION":15.27598115,"ECCENTRICITY":0.00019365,"INCLINATION":43.004,"RA_OF_ASC_NODE":282.0756,"ARG_OF_PERICENTER":268.8997,"MEAN_ANOMALY":91.1633,"EPHEMERIS_TYPE":0,"CLASSIFICATION_TYPE":"U","NORAD_CAT_ID":66530,"ELEMENT_SET_NO":999,"REV_AT_EPOCH":1700,"BSTAR":0.0013363732,"MEAN_MOTION_DOT":0.00036716,"MEAN_MOTION_DDOT":0}]
